GOES 1 (SMS-C) [-]      
1 08366U 75100A   22253.51202861 -.00000254  00000+0  00000+0 0  9995
2 08366   8.0760 294.6573 0002889 250.7662 267.7441  1.00267570171410
GOES 2 [-]              
1 10061U 77048A   22253.84410507 -.00000307  00000+0  00000+0 0  9996
2 10061   9.6614 306.1831 0010199  25.0580 116.9803  0.99402270109841
GOES 3 [-]              
1 10953U 78062A   22252.88370288 -.00000133  00000+0  00000+0 0  9994
2 10953   9.9971 310.7375 0003189 172.1361 191.1635  0.99363890114866
GOES 4 [-]              
1 11964U 80074A   22252.83019483  .00000016  00000+0  00000+0 0  9994
2 11964  10.9611 314.5626 0031673  77.9739 290.7341  0.99229883113977
GOES 5 [-]              
1 12472U 81049A   22253.62480321 -.00000292  00000+0  00000+0 0  9990
2 12472  11.8139 325.9618 0002414 186.6521 350.8030  1.00302813109057
GOES 6 [-]              
1 14050U 83041A   22253.15429981 -.00000278  00000+0  00000+0 0  9995
2 14050  12.3812 331.2826 0004988 158.3105 199.6188  1.00283982202218
GOES 7 [-]              
1 17561U 87022A   22253.83084627 -.00000373  00000+0  00000+0 0  9993
2 17561  14.1704 347.8417 0004931  81.2009 353.0490  0.99905313113222
GOES 8 [-]              
1 23051U 94022A   22252.31167378 -.00000223  00000+0  00000+0 0  9993
2 23051  13.2472  23.5899 0005556  58.2850 328.1950  0.98905965110514
GOES 9 [-]              
1 23581U 95025A   22253.62364365 -.00000224  00000+0  00000+0 0  9996
2 23581  12.7423  23.9319 0008536 112.5825 253.9930  0.98802550 99177
GOES 10 [-]             
1 24786U 97019A   22253.73290719 -.00000240  00000+0  00000+0 0  9990
2 24786  11.5152  30.1284 0027067 198.7331 332.7506  0.99124393 92430
GOES 11 [-]             
1 26352U 00022A   22253.84379757 -.00000305  00000+0  00000+0 0  9993
2 26352   8.8610  58.6265 0002382 119.4824 264.2893  0.99045731 38855
GOES 12 [-]             
1 26871U 01031A   22253.67997215 -.00000061  00000+0  00000+0 0  9995
2 26871   9.6676  47.6079 0003772 335.2493 303.3528  0.99134543 77120
EWS-G1 (GOES 13) [+]    
1 29155U 06018A   22254.11432162  .00000016  00000+0  00000+0 0  9997
2 29155   0.7994  95.9803 0006209 106.0112 250.8800  1.00274937 59724
GOES 14 [B]             
1 35491U 09033A   22254.43050531 -.00000112  00000+0  00000+0 0  9996
2 35491   0.4111 267.6571 0017465 303.8460 189.4211  1.00273297 48371
GOES 15 [B]             
1 36411U 10008A   22254.40326913  .00000031  00000+0  00000+0 0  9999
2 36411   0.3713 277.0570 0004944 252.5241 198.2876  1.00278929 45874
GOES 16 [+]             
1 41866U 16071A   22254.15879380 -.00000268  00000+0  00000+0 0  9991
2 41866   0.0681 285.7711 0000648 280.4778 125.8741  1.00270788 21315
GOES 17 [+]             
1 43226U 18022A   22253.71590310  .00000077  00000+0  00000+0 0  9992
2 43226   0.0902 282.5912 0000451 223.3955 324.1425  1.00271233 16634
GOES 18 [+]             
1 51850U 22021A   22254.14649855  .00000076  00000+0  00000+0 0  9994
2 51850   0.0390  23.0349 0002859 187.6796  55.2045  1.00271530  2015
